NORAD_CAT_ID,OBJECT_NAME,OBJECT_TYPE,EPOCH,MEAN_MOTION,ECCENTRICITY,INCLINATION,RA_OF_ASC_NODE,ARG_OF_PERICENTER,MEAN_ANOMALY,BSTAR,MEAN_MOTION_DOT,MEAN_MOTION_DDOT,TLE_LINE0,TLE_LINE1,TLE_LINE2,SEMIMAJOR_AXIS,PERIOD,APOGEE,PERIGEE,DECAYED
53897.0,STARLINK-5035,PAYLOAD,2024-02-28 04:26:40,15.08836446,0.0001457,53.2184,48.3712,85.1098,275.0061,8.9365e-05,1.134e-05,0.0,0 STARLINK-5035,1 53897U 22119M   24059.18518803  .00001134  00000-0  89365-4 0  9995,2 53897  53.2184  48.3712 0001457  85.1098 275.0061 15.08836446 79473,6917.891,95.438,540.764,538.748,0.0
53897.0,STARLINK-5035,PAYLOAD,2024-02-28 06:02:03,15.0884083,0.0001526,53.2183,48.0727,87.8731,272.2435,7.5487e-05,9.14e-06,0.0,0 STARLINK-5035,1 53897U 22119M   24059.25142525  .00000914  00000-0  75487-4 0  9992,2 53897  53.2183  48.0727 0001526  87.8731 272.2435 15.08840830 79909,6917.878,95.438,540.799,538.687,0.0
53897.0,STARLINK-5035,PAYLOAD,2024-02-28 15:34:22,15.08839535,0.0001422,53.2176,46.2879,87.1479,272.9676,-3.9731e-06,-3.51e-06,0.0,0 STARLINK-5035,1 53897U 22119M   24059.64886837 -.00000351  00000-0 -39731-5 0  9996,2 53897  53.2176  46.2879 0001422  87.1479 272.9676 15.08839535 79966,6917.882,95.438,540.731,538.763,0.0
53897.0,STARLINK-5035,PAYLOAD,2024-02-29 04:17:27,15.08839715,0.0001413,53.2182,43.9083,95.7574,264.3579,4.3333e-05,4.02e-06,0.0,0 STARLINK-5035,1 53897U 22119M   24060.17878758  .00000402  00000-0  43333-4 0  9996,2 53897  53.2182  43.9083 0001413  95.7574 264.3579 15.08839715 80043,6917.881,95.438,540.724,538.769,0.0
53897.0,STARLINK-5035,PAYLOAD,2024-02-29 15:25:09,15.08842149,0.0001474,53.2183,41.8266,91.5691,268.547,2.2406e-05,6.9e-07,0.0,0 STARLINK-5035,1 53897U 22119M   24060.64246654  .00000069  00000-0  22406-4 0  9999,2 53897  53.2183  41.8266 0001474  91.5691 268.5470 15.08842149 79695,6917.874,95.437,540.759,538.719,0.0
53897.0,STARLINK-5035,PAYLOAD,2024-02-29 21:46:42,15.08832282,0.0001629,53.2183,40.6417,108.1745,251.9425,5.6474e-05,6.11e-06,0.0,0 STARLINK-5035,1 53897U 22119M   24060.90743236  .00000611  00000-0  56474-4 0  9991,2 53897  53.2183  40.6417 0001629 108.1745 251.9425 15.08832282 80153,6917.904,95.438,540.896,538.642,0.0
53897.0,STARLINK-5035,PAYLOAD,2024-03-01 04:08:14,15.08832417,0.0001415,53.218,39.4518,99.3577,260.7575,-7.313e-06,-4.04e-06,0.0,0 STARLINK-5035,1 53897U 22119M   24061.17239558 -.00000404  00000-0 -73130-5 0  9999,2 53897  53.2180  39.4518 0001415  99.3577 260.7575 15.08832417 79775,6917.904,95.438,540.747,538.79,0.0
53897.0,STARLINK-5035,PAYLOAD,2024-03-01 05:43:38,15.08833923,0.0001425,53.2182,39.1544,99.224,260.8914,4.8844e-06,-2.1e-06,0.0,0 STARLINK-5035,1 53897U 22119M   24061.23863475 -.00000210  00000-0  48844-5 0  9995,2 53897  53.2182  39.1544 0001425  99.2240 260.8914 15.08833923 80201,6917.899,95.438,540.75,538.778,0.0
53897.0,STARLINK-5035,PAYLOAD,2024-03-01 15:15:56,15.0883534,0.0001435,53.2187,37.3703,98.0537,262.0618,5.0095e-05,5.09e-06,0.0,0 STARLINK-5035,1 53897U 22119M   24061.63607382  .00000509  00000-0  50095-4 0  9992,2 53897  53.2187  37.3703 0001435  98.0537 262.0618 15.08835340 80266,6917.895,95.438,540.752,538.767,0.0
53897.0,STARLINK-5035,PAYLOAD,2024-03-02 05:34:24,15.08840219,0.0001387,53.2187,34.6925,95.9481,264.167,5.2078e-05,5.41e-06,0.0,0 STARLINK-5035,1 53897U 22119M   24062.23223275  .00000541  00000-0  52078-4 0  9993,2 53897  53.2187  34.6925 0001387  95.9481 264.1670 15.08840219 79936,6917.88,95.438,540.704,538.785,0.0
53897.0,STARLINK-5035,PAYLOAD,2024-03-03 07:00:34,15.08846823,0.0001498,53.219,29.9336,86.3316,273.7847,0.0001277,1.745e-05,0.0,0 STARLINK-5035,1 53897U 22119M   24063.29206846  .00001745  00000-0  12770-3 0  9996,2 53897  53.2190  29.9336 0001498  86.3316 273.7847 15.08846823 80095,6917.86,95.437,540.761,538.688,0.0
53897.0,STARLINK-5035,PAYLOAD,2024-03-04 03:40:35,15.08850887,0.0001827,53.2194,26.0711,83.4994,276.6206,0.00010078,1.317e-05,0.0,0 STARLINK-5035,1 53897U 22119M   24064.15318597  .00001317  00000-0  10078-3 0  9993,2 53897  53.2194  26.0711 0001827  83.4994 276.6206 15.08850887 80647,6917.847,95.437,540.976,538.448,0.0
53897.0,STARLINK-5035,PAYLOAD,2024-03-05 03:31:18,15.08902575,0.0002049,53.2206,21.604,98.2037,261.9187,0.00045171,6.92e-05,0.0,0 STARLINK-5035,1 53897U 22119M   24065.14674375  .00006920  00000-0  45171-3 0  9999,2 53897  53.2206  21.6040 0002049  98.2037 261.9187 15.08902575 80373,6917.689,95.434,540.972,538.137,0.0
53897.0,STARLINK-5035,PAYLOAD,2024-03-05 13:03:42,15.08832402,0.0001429,53.2201,19.8201,79.0963,281.019,-0.00011564,-2.127e-05,0.0,0 STARLINK-5035,1 53897U 22119M   24065.54423811 -.00002127  00000-0 -11564-3 0  9996,2 53897  53.2201  19.8201 0001429  79.0963 281.0190 15.08832402 80853,6917.904,95.438,540.757,538.78,0.0
53897.0,STARLINK-5035,PAYLOAD,2024-03-05 21:00:37,15.08825561,9.23e-05,53.2194,18.3333,112.1747,247.9343,2.1363e-05,5.2e-07,0.0,0 STARLINK-5035,1 53897U 22119M   24065.87543784  .00000052  00000-0  21363-4 0  9996,2 53897  53.2194  18.3333 0000923 112.1747 247.9343 15.08825561 80489,6917.925,95.438,540.428,539.151,0.0
53897.0,STARLINK-5035,PAYLOAD,2024-03-06 03:22:09,15.08849791,0.0001648,53.2197,17.1452,118.2195,241.8963,-1.7981e-05,-5.74e-06,0.0,0 STARLINK-5035,1 53897U 22119M   24066.14038487 -.00000574  00000-0 -17981-4 0  9998,2 53897  53.2197  17.1452 0001648 118.2195 241.8963 15.08849791 80527,6917.85,95.437,540.856,538.575,0.0
53897.0,STARLINK-5035,PAYLOAD,2024-03-06 06:32:55,15.08851449,0.0001602,53.2192,16.5492,118.4917,241.6237,-1.4828e-05,-5.24e-06,0.0,0 STARLINK-5035,1 53897U 22119M   24066.27286178 -.00000524  00000-0 -14828-4 0  9996,2 53897  53.2192  16.5492 0001602 118.4917 241.6237 15.08851449 80966,6917.845,95.437,540.819,538.602,0.0
53897.0,STARLINK-5035,PAYLOAD,2024-03-07 03:12:56,15.08844141,0.0001152,53.2195,12.6862,83.3292,276.7831,8.0059e-06,-1.6e-06,0.0,0 STARLINK-5035,1 53897U 22119M   24067.13399070 -.00000160  00000-0  80059-5 0  9993,2 53897  53.2195  12.6862 0001152  83.3292 276.7831 15.08844141 80671,6917.868,95.437,540.53,538.936,0.0
53897.0,STARLINK-5035,PAYLOAD,2024-03-07 12:45:15,15.08845805,0.000105,53.2193,10.9005,79.5392,280.5719,2.8099e-05,1.6e-06,0.0,0 STARLINK-5035,1 53897U 22119M   24067.53142831  .00000160  00000-0  28099-4 0  9992,2 53897  53.2193  10.9005 0001050  79.5392 280.5719 15.08845805 81154,6917.863,95.437,540.454,539.001,0.0
53897.0,STARLINK-5035,PAYLOAD,2024-03-08 01:28:21,15.08834185,0.000157,53.2204,8.5253,104.1771,255.9395,1.3419e-05,-7.4e-07,0.0,0 STARLINK-5035,1 53897U 22119M   24068.06136088 -.00000074  00000-0  13419-4 0  9993,2 53897  53.2204   8.5253 0001570 104.1771 255.9395 15.08834185 80815,6917.898,95.438,540.849,538.677,0.0
53897.0,STARLINK-5035,PAYLOAD,2024-03-08 12:36:02,15.0884763,0.0001235,53.2193,6.4365,72.7311,287.3816,0.0001531,2.15e-05,0.0,0 STARLINK-5035,1 53897U 22119M   24068.52502717  .00002150  00000-0  15310-3 0  9997,2 53897  53.2193   6.4365 0001235  72.7311 287.3816 15.08847630 81302,6917.857,95.437,540.576,538.868,0.0
53897.0,STARLINK-5035,PAYLOAD,2024-03-08 20:32:59,15.08826045,0.0001264,53.2194,4.9533,74.5315,285.5816,-7.8618e-05,-1.538e-05,0.0,0 STARLINK-5035,1 53897U 22119M   24068.85624927 -.00001538  00000-0 -78618-4 0  9993,2 53897  53.2194   4.9533 0001264  74.5315 285.5816 15.08826045 81351,6917.923,95.438,540.662,538.914,0.0
53897.0,STARLINK-5035,PAYLOAD,2024-03-09 02:54:31,15.08839288,0.0001299,53.2185,3.7644,74.195,285.9185,3.6388e-05,2.91e-06,0.0,0 STARLINK-5035,1 53897U 22119M   24069.12119935  .00000291  00000-0  36388-4 0  9993,2 53897  53.2185   3.7644 0001299  74.1950 285.9185 15.08839288 80973,6917.883,95.438,540.646,538.849,0.0
53897.0,STARLINK-5035,PAYLOAD,2024-03-09 12:26:50,15.08844278,0.0001402,53.2191,1.9813,83.0945,277.0206,7.1442e-05,8.49e-06,0.0,0 STARLINK-5035,1 53897U 22119M   24069.51863508  .00000849  00000-0  71442-4 0  9997,2 53897  53.2191   1.9813 0001402  83.0945 277.0206 15.08844278 81452,6917.867,95.437,540.702,538.762,0.0
53897.0,STARLINK-5035,PAYLOAD,2024-03-10 12:17:36,15.08860705,0.0001641,53.2199,357.5157,65.6122,294.5042,0.00012883,1.764e-05,0.0,0 STARLINK-5035,1 53897U 22119M   24070.51222306  .00001764  00000-0  12883-3 0  9994,2 53897  53.2199 357.5157 0001641  65.6122 294.5042 15.08860705 81184,6917.817,95.436,540.817,538.547,0.0
53897.0,STARLINK-5035,PAYLOAD,2024-03-10 18:39:11,15.08816733,0.0001241,53.2197,356.3313,77.9061,282.207,-2.6675e-06,-3.3e-06,0.0,0 STARLINK-5035,1 53897U 22119M   24070.77721367 -.00000330  00000-0 -26675-5 0  9999,2 53897  53.2197 356.3313 0001241  77.9061 282.2070 15.08816733 81229,6917.952,95.439,540.675,538.958,0.0
53897.0,STARLINK-5035,PAYLOAD,2024-03-11 04:11:29,15.08838414,0.0001341,53.2194,354.5472,84.4438,275.6707,5.9665e-05,6.62e-06,0.0,0 STARLINK-5035,1 53897U 22119M   24071.17464147  .00000662  00000-0  59665-4 0  9994,2 53897  53.2194 354.5472 0001341  84.4438 275.6707 15.08838414 81283,6917.885,95.438,540.678,538.823,0.0
53897.0,STARLINK-5035,PAYLOAD,2024-03-11 12:08:24,15.08843579,0.000139,53.2195,353.0612,82.4664,277.6487,6.2398e-05,7.05e-06,0.0,0 STARLINK-5035,1 53897U 22119M   24071.50583799  .00000705  00000-0  62398-4 0  9991,2 53897  53.2195 353.0612 0001390  82.4664 277.6487 15.08843579 81754,6917.869,95.437,540.696,538.773,0.0
53897.0,STARLINK-5035,PAYLOAD,2024-03-12 11:59:11,15.0884797,0.000181,53.2217,348.5975,84.8671,275.2528,4.4367e-05,4.18e-06,0.0,0 STARLINK-5035,1 53897U 22119M   24072.49943758  .00000418  00000-0  44367-4 0  9992,2 53897  53.2217 348.5975 0001810  84.8671 275.2528 15.08847970 81480,6917.856,95.437,540.973,538.469,0.0
53897.0,STARLINK-5035,PAYLOAD,2024-03-13 03:53:02,15.08843121,0.0001582,53.2201,345.6248,96.3649,263.7523,0.00010071,1.315e-05,0.0,0 STARLINK-5035,1 53897U 22119M   24073.16183848  .00001315  00000-0  10071-3 0  9994,2 53897  53.2201 345.6248 0001582  96.3649 263.7523 15.08843121 81585,6917.871,95.437,540.83,538.641,0.0
